      2.10          N: GNSS NAV DATA                        RINEX VERSION / TYPE
fic2rin                                 11/13/2018 00:20:16 PGM / RUN BY / DATE
                                                            END OF HEADER
 2 18 11 12 10  0  0.0-5.643768236041e-05-1.057287590811e-11 0.000000000000e+00
    3.000000000000e+01-8.587500000000e+01 4.487329772440e-09 1.822569382199e+00
   -4.811212420464e-06 1.837992772926e-02 8.676201105118e-06 5.153598823547e+03
    1.224000000000e+05-7.450580596924e-09 4.643341935887e-01-4.712492227554e-07
    9.525148383978e-01 2.093750000000e+02-1.817079273011e+00-7.888900032923e-09
    8.678932940965e-11 1.000000000000e+00 2.027000000000e+03 0.000000000000e+00
    2.400000000000e+00 0.000000000000e+00-2.048909664154e-08 3.000000000000e+01
    1.152060000000e+05 4.000000000000e+00
 1 18 11 12 10  0  0.0-1.132185570896e-04-5.343281372916e-12 0.000000000000e+00
    5.300000000000e+01-8.353125000000e+01 4.204818004690e-09 1.485960111335e+00
   -4.244968295097e-06 8.150572888553e-03 8.890405297279e-06 5.153667537689e+03
    1.224000000000e+05-1.247972249985e-07 5.289665038867e-01 1.173466444016e-07
    9.733845292813e-01 2.163750000000e+02 6.992376574380e-01-7.881756878239e-09
    4.178745490094e-11 1.000000000000e+00 2.027000000000e+03 0.000000000000e+00
    2.400000000000e+00 0.000000000000e+00 5.587935447693e-09 5.300000000000e+01
    1.152060000000e+05 4.000000000000e+00
 5 18 11 12 10  0  0.0-2.533197402954e-07 2.273736754432e-13 0.000000000000e+00
    4.100000000000e+01 3.843750000000e+00 4.906275794652e-09-1.898557940799e+00
    1.713633537292e-07 5.579451448284e-03 7.759779691696e-06 5.153570075989e+03
    1.224000000000e+05 2.235174179077e-08 1.547595869477e+00-6.332993507385e-08
    9.482646093358e-01 2.233125000000e+02 7.183949997839e-01-8.061764376274e-09
    3.207276453081e-10 1.000000000000e+00 2.027000000000e+03 0.000000000000e+00
    2.400000000000e+00 0.000000000000e+00-1.117587089539e-08 4.100000000000e+01
    1.152060000000e+05 4.000000000000e+00
 3 18 11 12 10  0  0.0 1.594633795321e-04 3.979039320257e-12 0.000000000000e+00
    4.400000000000e+01-6.906250000000e+00 4.675551898361e-09 3.740048407000e-01
   -3.539025783539e-07 1.838698284701e-03 7.743015885353e-06 5.153637660980e+03
    1.224000000000e+05 3.166496753693e-08 1.571744822898e+00 1.303851604462e-08
    9.613793407599e-01 2.288750000000e+02 7.059722315371e-01-7.984261147953e-09
    2.410814705824e-10 1.000000000000e+00 2.027000000000e+03 0.000000000000e+00
    2.400000000000e+00 0.000000000000e+00 2.328306436539e-09 4.400000000000e+01
    1.152060000000e+05 4.000000000000e+00
28 18 11 12 10  0  0.0 7.541612721980e-04 1.705302565824e-12 0.000000000000e+00
    9.000000000000e+00 7.600000000000e+01 3.944092858727e-09-1.716055756359e+00
    4.466623067856e-06 1.966096844990e-02 4.364177584648e-06 5.153696714401e+03
    1.224000000000e+05 1.192092895508e-07-1.482203333318e+00 4.582107067108e-07
    9.840120893104e-01 3.075312500000e+02-1.500032461619e+00-7.834969215059e-09
    2.035799084918e-10 1.000000000000e+00 2.027000000000e+03 0.000000000000e+00
    2.400000000000e+00 0.000000000000e+00-1.117587089539e-08 9.000000000000e+00
    1.152060000000e+05 4.000000000000e+00
27 18 11 12 10  0  0.0-1.700874418020e-05-5.115907697473e-12 0.000000000000e+00
    3.600000000000e+01-4.893750000000e+01 4.318037006431e-09-2.596789391479e+00
   -2.630054950714e-06 6.160068442114e-03 3.321096301079e-06 5.153698347092e+03
    1.224000000000e+05-8.009374141693e-08-5.264069707118e-01-1.117587089539e-07
    9.782988807266e-01 3.265937500000e+02 4.382558501781e-01-8.090694152744e-09
   -1.285767843106e-11 1.000000000000e+00 2.027000000000e+03 0.000000000000e+00
    2.400000000000e+00 0.000000000000e+00 1.862645149231e-09 3.600000000000e+01
    1.152060000000e+05 4.000000000000e+00
14 18 11 12 10  0  0.0-9.588338434696e-05 3.410605131648e-13 0.000000000000e+00
    3.700000000000e+01-6.250000000000e-02 4.521974072657e-09-2.859479566676e+00
    9.126961231232e-08 9.990197257139e-03 7.174909114838e-06 5.153638837814e+03
    1.224000000000e+05 7.264316082001e-08 2.696116079691e+00-5.587935447693e-08
    9.609292857161e-01 2.399687500000e+02-1.945635491619e+00-7.732464945345e-09
   -2.535819912792e-10 1.000000000000e+00 2.027000000000e+03 0.000000000000e+00
    2.400000000000e+00 0.000000000000e+00-9.778887033463e-09 3.700000000000e+01
    1.152060000000e+05 4.000000000000e+00
 7 18 11 12 10  0  0.0 8.992245420814e-05-6.821210263297e-12 0.000000000000e+00
    5.000000000000e+01 4.843750000000e+01 4.398397496625e-09 8.510848265506e-01
    2.663582563400e-06 1.209223922342e-02 9.573996067047e-06 5.153635528564e+03
    1.224000000000e+05-2.328306436539e-07-2.601678880631e+00 1.490116119385e-07
    9.573995525857e-01 1.948437500000e+02-2.481306424715e+00-7.983903990219e-09
   -3.532289991199e-10 1.000000000000e+00 2.027000000000e+03 0.000000000000e+00
    2.400000000000e+00 0.000000000000e+00-1.117587089539e-08 5.000000000000e+01
    1.152060000000e+05 4.000000000000e+00
 6 18 11 12 10  0  0.0 3.348402678967e-04-6.252776074689e-12 0.000000000000e+00
    3.300000000000e+01-7.284375000000e+01 4.096956368963e-09 1.835414963029e+00
   -3.792345523834e-06 1.073952531442e-03 8.771196007729e-06 5.153742967606e+03
    1.224000000000e+05-1.117587089539e-08 5.206634563171e-01-3.352761268616e-08
    9.730775812728e-01 2.145937500000e+02-1.217851486528e+00-7.763894825954e-09
    5.035924052165e-11 1.000000000000e+00 2.027000000000e+03 0.000000000000e+00
    2.400000000000e+00 0.000000000000e+00 4.656612873077e-09 3.300000000000e+01
    1.152060000000e+05 4.000000000000e+00
30 18 11 12 10  0  0.0-3.595370799303e-06-5.684341886081e-12 0.000000000000e+00
    3.500000000000e+01 4.903125000000e+01 4.679480633437e-09 8.295476222396e-01
    2.637505531311e-06 3.573985770345e-03 9.335577487946e-06 5.153667757034e+03
    1.224000000000e+05-1.862645149231e-09-2.570588676434e+00 1.508742570877e-07
    9.429180285035e-01 1.898125000000e+02-2.977788030973e+00-8.049263855577e-09
   -1.928651764659e-10 1.000000000000e+00 2.027000000000e+03 0.000000000000e+00
    2.400000000000e+00 0.000000000000e+00 3.725290298462e-09 3.500000000000e+01
    1.152060000000e+05 4.000000000000e+00
15 18 11 12 10  0  0.0-3.400528803468e-04 1.250555214938e-12 0.000000000000e+00
    3.600000000000e+01-7.250000000000e+00 5.407368095729e-09 2.773996132851e+00
   -4.973262548447e-07 1.101730507798e-02 6.446614861488e-06 5.153587535858e+03
    1.224000000000e+05-2.421438694000e-08 2.529973667170e+00-1.322478055954e-07
    9.281552335510e-01 2.381562500000e+02 7.315363694832e-01-8.264272811563e-09
   -2.507247294057e-10 1.000000000000e+00 2.027000000000e+03 0.000000000000e+00
    2.400000000000e+00 0.000000000000e+00-1.117587089539e-08 3.600000000000e+01
    1.152060000000e+05 4.000000000000e+00
11 18 11 12 10  0  0.0-7.006744854152e-04 3.979039320257e-12 0.000000000000e+00
    3.700000000000e+01-9.809375000000e+01 5.902031557590e-09 8.282601255931e-01
   -5.317851901054e-06 1.680628000759e-02 5.988404154778e-06 5.153669315338e+03
    1.224000000000e+05-1.490116119385e-07 9.109799199131e-02-2.756714820862e-07
    9.076337727612e-01 2.396250000000e+02 1.839684239284e+00-8.963230497385e-09
   -3.285851154604e-11 1.000000000000e+00 2.027000000000e+03 0.000000000000e+00
    2.400000000000e+00 0.000000000000e+00-1.210719347000e-08 3.700000000000e+01
    1.152060000000e+05 4.000000000000e+00
 8 18 11 12 10  0  0.0-1.218975521624e-04-1.364242052659e-12 0.000000000000e+00
    1.030000000000e+02-4.309375000000e+01 4.534117435619e-09-2.210369211230e+00
   -2.162531018257e-06 3.757736529224e-03 3.278255462646e-06 5.153651782990e+03
    1.224000000000e+05-1.471489667892e-07-5.362098355434e-01 9.313225746155e-09
    9.700574805249e-01 3.243437500000e+02-4.138966505597e-01-8.226414091738e-09
   -1.821504444400e-11 1.000000000000e+00 2.027000000000e+03 0.000000000000e+00
    2.400000000000e+00 0.000000000000e+00 5.122274160385e-09 1.030000000000e+02
    1.152060000000e+05 4.000000000000e+00
 4 18 11 12 10  0  0.0-4.145130515099e-05-2.307842805749e-11 0.000000000000e+00
    1.130000000000e+02-4.128125000000e+01 4.758769650429e-09-2.420462394911e+00
   -2.302229404449e-06 1.367179222871e-02 2.553686499596e-06 5.153671703339e+03
    1.224000000000e+05 6.891787052155e-08-6.239006810876e-01-2.328306436539e-07
    9.589524415898e-01 3.300312500000e+02 5.768227265019e-01-8.276416174526e-09
    1.075044779930e-10 1.000000000000e+00 2.027000000000e+03 0.000000000000e+00
    2.400000000000e+00 6.300000000000e+01-5.587935447693e-09 1.130000000000e+02
    1.152060000000e+05 4.000000000000e+00
32 18 11 12 10  0  0.0-3.600264899433e-04 1.398348103976e-11 0.000000000000e+00
    3.700000000000e+01-1.281250000000e+00 4.703053043894e-09-1.824602443341e+00
    5.029141902924e-08 2.317504142411e-03 7.087364792824e-06 5.153716411591e+03
    1.224000000000e+05-3.725290298462e-08 2.610719837246e+00-9.685754776001e-08
    9.570250806674e-01 2.437500000000e+02-2.604878730123e+00-7.938544957976e-09
   -2.585821995580e-10 1.000000000000e+00 2.027000000000e+03 0.000000000000e+00
    2.400000000000e+00 0.000000000000e+00 4.656612873077e-10 3.700000000000e+01
    1.152060000000e+05 4.000000000000e+00
26 18 11 12 10  0  0.0 3.703916445374e-05 1.114131009672e-11 0.000000000000e+00
    3.900000000000e+01 9.171875000000e+01 4.665551481803e-09-6.913756708918e-01
    4.697591066360e-06 3.183262306266e-03 5.006790161133e-06 5.153750497818e+03
    1.224000000000e+05 7.636845111847e-08-1.592156692106e+00-6.519258022308e-08
    9.536898995495e-01 2.759687500000e+02 4.244741656242e-02-8.301417215920e-09
    1.875078104529e-10 1.000000000000e+00 2.027000000000e+03 0.000000000000e+00
    2.400000000000e+00 0.000000000000e+00 7.450580596924e-09 3.900000000000e+01
    1.152060000000e+05 4.000000000000e+00
